{
"type": "FeatureCollection",
"name": "boundary",
"xy_coordinate_resolution": 1e-07,
"features": [
{ "type": "Feature", "properties": { "talhoes": 2606, "area total": 17.97 }, "geometry": { "type": "Polygon", "coordinates": [ [ [ -49.1676041, -19.9073351 ], [ -49.1679063, -19.9074461 ], [ -49.1683682, -19.907583 ], [ -49.1689271, -19.9077558 ], [ -49.1694813, -19.9078659 ], [ -49.1699123, -19.907966 ], [ -49.1699725, -19.9080101 ], [ -49.1699774, -19.9080623 ], [ -49.1698352, -19.9084331 ], [ -49.1696506, -19.9088139 ], [ -49.1692184, -19.9094514 ], [ -49.1691927, -19.9094546 ], [ -49.1691615, -19.9094438 ], [ -49.1691229, -19.9094434 ], [ -49.1690934, -19.9094466 ], [ -49.1690713, -19.9094568 ], [ -49.1690727, -19.9094881 ], [ -49.1690925, -19.9095249 ], [ -49.1691582, -19.9095725 ], [ -49.169141, -19.9096297 ], [ -49.1687442, -19.910231 ], [ -49.1682591, -19.9109879 ], [ -49.1678717, -19.9115736 ], [ -49.1677236, -19.9114956 ], [ -49.1668337, -19.9109924 ], [ -49.1659437, -19.9104961 ], [ -49.1650356, -19.9099788 ], [ -49.1641239, -19.9094597 ], [ -49.1635556, -19.9091425 ], [ -49.1634881, -19.9090913 ], [ -49.1636144, -19.9089883 ], [ -49.1644669, -19.9084265 ], [ -49.1648116, -19.9081952 ], [ -49.1649852, -19.9082927 ], [ -49.1650729, -19.9081805 ], [ -49.1649653, -19.9081046 ], [ -49.1651636, -19.9079745 ], [ -49.165816, -19.9075359 ], [ -49.1659177, -19.9074882 ], [ -49.1659451, -19.9075059 ], [ -49.1660053, -19.9075517 ], [ -49.1660841, -19.9075699 ], [ -49.1661379, -19.9075322 ], [ -49.1661682, -19.9074577 ], [ -49.1661576, -19.9074159 ], [ -49.166118, -19.9073494 ], [ -49.1662459, -19.9072602 ], [ -49.16642, -19.9071507 ], [ -49.1665566, -19.9071086 ], [ -49.1667462, -19.9070932 ], [ -49.1670506, -19.9071729 ], [ -49.1676041, -19.9073351 ] ], [ [ -49.1678884, -19.9075624 ], [ -49.1678127, -19.9075895 ], [ -49.1677774, -19.9076204 ], [ -49.1677475, -19.9076601 ], [ -49.1677116, -19.9077485 ], [ -49.1676943, -19.9078075 ], [ -49.1677047, -19.9078615 ], [ -49.1677614, -19.9078951 ], [ -49.1678181, -19.9079218 ], [ -49.1678788, -19.9079224 ], [ -49.1679067, -19.9078914 ], [ -49.1679199, -19.9078672 ], [ -49.1679563, -19.9078989 ], [ -49.1679873, -19.9079183 ], [ -49.1680864, -19.907942 ], [ -49.1681768, -19.9079133 ], [ -49.1682105, -19.9078597 ], [ -49.1682165, -19.9078181 ], [ -49.1682243, -19.9077781 ], [ -49.1681918, -19.9077326 ], [ -49.1681609, -19.9076957 ], [ -49.1681208, -19.9076692 ], [ -49.1680876, -19.9076741 ], [ -49.1680543, -19.9076894 ], [ -49.1680398, -19.9076684 ], [ -49.1680347, -19.9076388 ], [ -49.1680148, -19.9076072 ], [ -49.1679949, -19.9075792 ], [ -49.1679528, -19.9075614 ], [ -49.1678996, -19.9075486 ], [ -49.1678884, -19.9075624 ] ] ] } },
{ "type": "Feature", "properties": { "talhoes": 2605, "area total": 27.06 }, "geometry": { "type": "Polygon", "coordinates": [ [ [ -49.1634548, -19.9091136 ], [ -49.1645784, -19.9097584 ], [ -49.1657424, -19.910414 ], [ -49.1668023, -19.9110042 ], [ -49.1677032, -19.911511 ], [ -49.1678585, -19.9115961 ], [ -49.1674108, -19.9123047 ], [ -49.1671152, -19.9127366 ], [ -49.1666902, -19.913388 ], [ -49.1663958, -19.913879 ], [ -49.1658867, -19.9146478 ], [ -49.1657237, -19.9149036 ], [ -49.1651443, -19.9145932 ], [ -49.164258, -19.91409 ], [ -49.1631853, -19.9134962 ], [ -49.1619719, -19.9128191 ], [ -49.1606343, -19.9120643 ], [ -49.1598139, -19.9116035 ], [ -49.159794, -19.9115685 ], [ -49.1599723, -19.911419 ], [ -49.1600896, -19.9114602 ], [ -49.1602138, -19.9115294 ], [ -49.1602669, -19.911556 ], [ -49.1603389, -19.9115254 ], [ -49.1603897, -19.911432 ], [ -49.1603975, -19.9113938 ], [ -49.1602333, -19.9112756 ], [ -49.1602373, -19.9112495 ], [ -49.1616736, -19.9103007 ], [ -49.1617049, -19.9102958 ], [ -49.161873, -19.9103932 ], [ -49.1619367, -19.9102965 ], [ -49.1618107, -19.9102169 ], [ -49.1618589, -19.9101843 ], [ -49.1634548, -19.9091136 ] ] ] } },
{ "type": "Feature", "properties": { "talhoes": 2604, "area total": 23.79 }, "geometry": { "type": "Polygon", "coordinates": [ [ [ -49.1608113, -19.9121879 ], [ -49.1628195, -19.9133167 ], [ -49.1639671, -19.91396 ], [ -49.164961, -19.9145321 ], [ -49.1656974, -19.9149485 ], [ -49.1651357, -19.915809 ], [ -49.1646936, -19.9165125 ], [ -49.1641787, -19.9173004 ], [ -49.1637897, -19.917853 ], [ -49.1637226, -19.9179341 ], [ -49.1629711, -19.9175523 ], [ -49.1615203, -19.9167232 ], [ -49.1606285, -19.9162269 ], [ -49.1598221, -19.9158167 ], [ -49.1598001, -19.9148598 ], [ -49.15977, -19.9141202 ], [ -49.1597518, -19.9133128 ], [ -49.1597353, -19.912509 ], [ -49.1597163, -19.9119278 ], [ -49.159727, -19.9116391 ], [ -49.159766, -19.9116117 ], [ -49.159788, -19.9116172 ], [ -49.1598356, -19.9116316 ], [ -49.1608113, -19.9121879 ] ] ] } },
{ "type": "Feature", "properties": { "talhoes": 2603, "area total": 5.09 }, "geometry": { "type": "Polygon", "coordinates": [ [ [ -49.1590081, -19.9121022 ], [ -49.1590748, -19.9120594 ], [ -49.1590967, -19.9120718 ], [ -49.1591103, -19.9120894 ], [ -49.1591087, -19.912145 ], [ -49.1591099, -19.9124364 ], [ -49.1591363, -19.9127811 ], [ -49.159146, -19.9131352 ], [ -49.1591615, -19.9135468 ], [ -49.1591686, -19.9138834 ], [ -49.1591804, -19.9142175 ], [ -49.1591998, -19.9147657 ], [ -49.1589977, -19.9146679 ], [ -49.1589411, -19.9146299 ], [ -49.1588736, -19.9145814 ], [ -49.1588568, -19.9145221 ], [ -49.158956, -19.9144501 ], [ -49.1589059, -19.9144087 ], [ -49.1586282, -19.9142518 ], [ -49.1585344, -19.9141761 ], [ -49.1585196, -19.914102 ], [ -49.1584551, -19.9140317 ], [ -49.1583709, -19.9139213 ], [ -49.1583559, -19.9138637 ], [ -49.1583155, -19.9137754 ], [ -49.1582363, -19.9137129 ], [ -49.1581489, -19.9136328 ], [ -49.1580718, -19.9135398 ], [ -49.1579275, -19.9134522 ], [ -49.1578776, -19.9133987 ], [ -49.1576638, -19.9132738 ], [ -49.1576424, -19.9132953 ], [ -49.1576915, -19.913348 ], [ -49.1577185, -19.9133996 ], [ -49.157991, -19.9136903 ], [ -49.1581085, -19.9138638 ], [ -49.1583652, -19.9141717 ], [ -49.1584914, -19.9143165 ], [ -49.158706, -19.9145988 ], [ -49.1588407, -19.9147185 ], [ -49.1589433, -19.9148352 ], [ -49.1591961, -19.915004 ], [ -49.1592025, -19.9152441 ], [ -49.1591943, -19.9153971 ], [ -49.158834, -19.9152229 ], [ -49.1582108, -19.9148781 ], [ -49.1575839, -19.9145394 ], [ -49.1568029, -19.9140807 ], [ -49.156365, -19.9138579 ], [ -49.1564261, -19.9138228 ], [ -49.1565856, -19.9137132 ], [ -49.1567321, -19.9136042 ], [ -49.1569564, -19.9134578 ], [ -49.1574336, -19.9131462 ], [ -49.1579154, -19.9128294 ], [ -49.1581602, -19.9126553 ], [ -49.1582023, -19.9126766 ], [ -49.1582373, -19.9126692 ], [ -49.1582453, -19.9126162 ], [ -49.1583234, -19.9125448 ], [ -49.1586476, -19.9123351 ], [ -49.1590081, -19.9121022 ] ] ] } },
{ "type": "Feature", "properties": { "talhoes": 2601, "area total": 9.69 }, "geometry": { "type": "Polygon", "coordinates": [ [ [ -49.1598728, -19.9162052 ], [ -49.1609545, -19.9168182 ], [ -49.1619578, -19.9173766 ], [ -49.1620051, -19.9174205 ], [ -49.1620395, -19.9174731 ], [ -49.1620885, -19.9175275 ], [ -49.1621601, -19.9175422 ], [ -49.1622303, -19.9175133 ], [ -49.1632076, -19.9180905 ], [ -49.1636225, -19.9183157 ], [ -49.1631494, -19.9188292 ], [ -49.1624877, -19.9195895 ], [ -49.1622027, -19.9199049 ], [ -49.1619638, -19.9201999 ], [ -49.1619075, -19.9203002 ], [ -49.1618482, -19.9203413 ], [ -49.1617821, -19.9203267 ], [ -49.1612813, -19.9198971 ], [ -49.1606817, -19.9194178 ], [ -49.1605193, -19.9193047 ], [ -49.1600814, -19.9191645 ], [ -49.1599091, -19.9191106 ], [ -49.1598527, -19.9182576 ], [ -49.1598432, -19.9174904 ], [ -49.1598284, -19.9168605 ], [ -49.1598118, -19.9162289 ], [ -49.1598086, -19.9161958 ], [ -49.1598178, -19.9161872 ], [ -49.1598728, -19.9162052 ] ] ] } },
{ "type": "Feature", "properties": { "talhoes": 2602, "area total": 11.89 }, "geometry": { "type": "Polygon", "coordinates": [ [ [ -49.1566263, -19.9143242 ], [ -49.1580625, -19.9151392 ], [ -49.1592209, -19.9158018 ], [ -49.1592314, -19.9161603 ], [ -49.1592545, -19.9170303 ], [ -49.1592851, -19.9181961 ], [ -49.1593057, -19.9186451 ], [ -49.1593033, -19.9188503 ], [ -49.1592734, -19.9188883 ], [ -49.1583177, -19.9185131 ], [ -49.1575831, -19.9180984 ], [ -49.1566517, -19.9175252 ], [ -49.1553186, -19.9167077 ], [ -49.1542231, -19.9160144 ], [ -49.1538687, -19.9158055 ], [ -49.1537593, -19.9157278 ], [ -49.1537747, -19.9156653 ], [ -49.1538828, -19.9155412 ], [ -49.1543946, -19.9151812 ], [ -49.1545798, -19.9150683 ], [ -49.1546787, -19.9151111 ], [ -49.1546999, -19.9151844 ], [ -49.1547026, -19.9152644 ], [ -49.1546099, -19.9153296 ], [ -49.1545428, -19.9154054 ], [ -49.1545126, -19.9154782 ], [ -49.154497, -19.9155545 ], [ -49.1544891, -19.9155997 ], [ -49.1545544, -19.9156734 ], [ -49.1546421, -19.91573 ], [ -49.1551145, -19.9159054 ], [ -49.1554877, -19.9160797 ], [ -49.155693, -19.9161445 ], [ -49.1559055, -19.9162162 ], [ -49.1561594, -19.916205 ], [ -49.1564104, -19.916131 ], [ -49.1565801, -19.916091 ], [ -49.1566886, -19.9159356 ], [ -49.1567824, -19.9157696 ], [ -49.1569167, -19.9156075 ], [ -49.15704, -19.9154487 ], [ -49.1570856, -19.9153205 ], [ -49.1570725, -19.9151777 ], [ -49.1569395, -19.9149154 ], [ -49.1568246, -19.9146741 ], [ -49.1565928, -19.9143621 ], [ -49.1565491, -19.9143199 ], [ -49.1565678, -19.9142922 ], [ -49.1566263, -19.9143242 ] ] ] } }
]
}
