{
"type": "FeatureCollection",
"name": "boundary",
"xy_coordinate_resolution": 1e-07,
"features": [
{ "type": "Feature", "properties": { "talhoes": 2503, "area total": 4.4 }, "geometry": { "type": "MultiPolygon", "coordinates": [ [ [ [ -49.0374568, -19.8722754 ], [ -49.0374815, -19.8722697 ], [ -49.0375072, -19.8723276 ], [ -49.0377101, -19.8729108 ], [ -49.0378936, -19.8734533 ], [ -49.0381763, -19.8742835 ], [ -49.03808, -19.8744942 ], [ -49.0380376, -19.8746134 ], [ -49.0380428, -19.8746324 ], [ -49.0380702, -19.8746964 ], [ -49.0381064, -19.8747174 ], [ -49.0381658, -19.8746905 ], [ -49.0382466, -19.8747069 ], [ -49.0382485, -19.8747715 ], [ -49.0381798, -19.8748878 ], [ -49.0378656, -19.8754291 ], [ -49.0374987, -19.8760422 ], [ -49.0373456, -19.8762823 ], [ -49.0372918, -19.8762998 ], [ -49.0372155, -19.8762835 ], [ -49.036828, -19.87599 ], [ -49.0361347, -19.8754711 ], [ -49.0362059, -19.8753781 ], [ -49.0363407, -19.8751472 ], [ -49.0364531, -19.8749582 ], [ -49.0366185, -19.8746795 ], [ -49.0367114, -19.8745196 ], [ -49.0368572, -19.8742776 ], [ -49.0369558, -19.8741074 ], [ -49.0370695, -19.8738858 ], [ -49.0371462, -19.8737102 ], [ -49.0372309, -19.8734839 ], [ -49.037296, -19.8732927 ], [ -49.0373481, -19.8730514 ], [ -49.0373886, -19.872866 ], [ -49.0374267, -19.8725789 ], [ -49.0374568, -19.8722754 ] ] ] ] } },
{ "type": "Feature", "properties": { "talhoes": 2502, "area total": 12.91 }, "geometry": { "type": "MultiPolygon", "coordinates": [ [ [ [ -49.0374715, -19.8705672 ], [ -49.0375363, -19.870623 ], [ -49.0375297, -19.8707158 ], [ -49.037434, -19.8721366 ], [ -49.0374537, -19.8721592 ], [ -49.0374271, -19.8723982 ], [ -49.0373416, -19.8729876 ], [ -49.0372725, -19.8732812 ], [ -49.037159, -19.8736346 ], [ -49.036961, -19.8740507 ], [ -49.0365966, -19.8746836 ], [ -49.0361416, -19.8754342 ], [ -49.036116, -19.8754425 ], [ -49.0358961, -19.8752714 ], [ -49.0351341, -19.8746519 ], [ -49.0346279, -19.8742384 ], [ -49.0345603, -19.8741172 ], [ -49.0345538, -19.8740534 ], [ -49.0346573, -19.8736294 ], [ -49.0347749, -19.8730902 ], [ -49.0348636, -19.8726866 ], [ -49.0350059, -19.8720616 ], [ -49.0351059, -19.8716221 ], [ -49.0352121, -19.8711327 ], [ -49.0353734, -19.8704408 ], [ -49.0354815, -19.8699393 ], [ -49.0355398, -19.8697833 ], [ -49.0356419, -19.8697638 ], [ -49.0374715, -19.8705672 ] ] ] ] } },
{ "type": "Feature", "properties": { "talhoes": 2501, "area total": 2.25 }, "geometry": { "type": "MultiPolygon", "coordinates": [ [ [ [ -49.0384205, -19.8692995 ], [ -49.0385933, -19.8693393 ], [ -49.0387685, -19.8693679 ], [ -49.03895, -19.8694069 ], [ -49.0391244, -19.8694983 ], [ -49.0391667, -19.8695393 ], [ -49.0392064, -19.8697118 ], [ -49.0392172, -19.8697257 ], [ -49.0392825, -19.8699593 ], [ -49.0393242, -19.8700875 ], [ -49.039326, -19.8700884 ], [ -49.039351, -19.8701283 ], [ -49.0393789, -19.8702232 ], [ -49.0393374, -19.870265 ], [ -49.0389436, -19.8703338 ], [ -49.0386298, -19.8704 ], [ -49.0386184, -19.8704421 ], [ -49.0386565, -19.870748 ], [ -49.0386651, -19.8709366 ], [ -49.0386393, -19.8709639 ], [ -49.0383098, -19.8708303 ], [ -49.0377161, -19.8705742 ], [ -49.0376347, -19.8705354 ], [ -49.0376132, -19.8704353 ], [ -49.0376434, -19.8702747 ], [ -49.0377044, -19.8699741 ], [ -49.0377738, -19.8696608 ], [ -49.0378253, -19.8693911 ], [ -49.0378527, -19.8693113 ], [ -49.0378878, -19.8692653 ], [ -49.0379473, -19.8692358 ], [ -49.0380338, -19.8692299 ], [ -49.0384205, -19.8692995 ] ] ] ] } }
]
}
