{
"type": "FeatureCollection",
"name": "boundary",
"xy_coordinate_resolution": 1e-07,
"features": [
{ "type": "Feature", "properties": { "talhoes": 2601, "area total": 11.45 }, "geometry": { "type": "MultiPolygon", "coordinates": [ [ [ [ -49.0631168, -19.9315927 ], [ -49.0636784, -19.9318123 ], [ -49.0639051, -19.9320351 ], [ -49.0640127, -19.9321602 ], [ -49.06395, -19.9322318 ], [ -49.0631806, -19.9326331 ], [ -49.0610948, -19.9338187 ], [ -49.0609862, -19.9337693 ], [ -49.0607484, -19.9335636 ], [ -49.0593771, -19.9325744 ], [ -49.0586335, -19.9320636 ], [ -49.0586532, -19.9319364 ], [ -49.0592236, -19.9311371 ], [ -49.0596713, -19.9305464 ], [ -49.0599024, -19.9304043 ], [ -49.0602366, -19.9304562 ], [ -49.0612659, -19.9308358 ], [ -49.0631168, -19.9315927 ] ] ] ] } },
{ "type": "Feature", "properties": { "talhoes": 2602, "area total": 6.23 }, "geometry": { "type": "MultiPolygon", "coordinates": [ [ [ [ -49.0586056, -19.9321115 ], [ -49.0588291, -19.932293 ], [ -49.058788, -19.9323734 ], [ -49.0587963, -19.9324389 ], [ -49.0588341, -19.9324789 ], [ -49.0588629, -19.9324999 ], [ -49.0589156, -19.9325125 ], [ -49.0589798, -19.9324667 ], [ -49.0590044, -19.9323947 ], [ -49.0592589, -19.9325662 ], [ -49.0599735, -19.9330732 ], [ -49.06067, -19.9335714 ], [ -49.0608828, -19.9337338 ], [ -49.0609816, -19.9338433 ], [ -49.0604681, -19.9341613 ], [ -49.059704, -19.9345713 ], [ -49.0587626, -19.9350481 ], [ -49.0578973, -19.9342158 ], [ -49.0574282, -19.9337287 ], [ -49.057699, -19.9333151 ], [ -49.0583252, -19.9324131 ], [ -49.058564, -19.9320852 ], [ -49.0586056, -19.9321115 ] ] ] ] } },
{ "type": "Feature", "properties": { "talhoes": 2603, "area total": 2.37 }, "geometry": { "type": "MultiPolygon", "coordinates": [ [ [ [ -49.0579328, -19.9320525 ], [ -49.0584248, -19.9320131 ], [ -49.0584664, -19.9320308 ], [ -49.0584931, -19.9320827 ], [ -49.0580499, -19.9327475 ], [ -49.0574016, -19.9336648 ], [ -49.0573635, -19.9336592 ], [ -49.0569555, -19.9332313 ], [ -49.0563493, -19.9326411 ], [ -49.0559911, -19.9323153 ], [ -49.0559896, -19.9322912 ], [ -49.0560191, -19.9322554 ], [ -49.0563509, -19.9322159 ], [ -49.0579328, -19.9320525 ] ] ] ] } },
{ "type": "Feature", "properties": { "talhoes": 2604, "area total": 3.26 }, "geometry": { "type": "MultiPolygon", "coordinates": [ [ [ [ -49.0574656, -19.9337946 ], [ -49.0583215, -19.9346543 ], [ -49.0587458, -19.9350806 ], [ -49.0578071, -19.9356367 ], [ -49.0568834, -19.9361481 ], [ -49.0568328, -19.9361235 ], [ -49.0565831, -19.9358488 ], [ -49.0564595, -19.9355428 ], [ -49.0564499, -19.9354291 ], [ -49.0564532, -19.935312 ], [ -49.0569107, -19.9345166 ], [ -49.0572484, -19.9339919 ], [ -49.0573764, -19.933797 ], [ -49.0574113, -19.9337716 ], [ -49.0574656, -19.9337946 ] ] ] ] } },
{ "type": "Feature", "properties": { "talhoes": 2605, "area total": 6.47 }, "geometry": { "type": "MultiPolygon", "coordinates": [ [ [ [ -49.0559349, -19.932294 ], [ -49.0566638, -19.932975 ], [ -49.0573648, -19.9337022 ], [ -49.0573623, -19.9337573 ], [ -49.0568911, -19.9344837 ], [ -49.0566339, -19.9349697 ], [ -49.0564946, -19.9351972 ], [ -49.0564303, -19.9352515 ], [ -49.056396, -19.9352271 ], [ -49.0556306, -19.9345543 ], [ -49.0551713, -19.9341585 ], [ -49.054875, -19.9341311 ], [ -49.0547406, -19.9341021 ], [ -49.0546177, -19.9340319 ], [ -49.0545185, -19.9338071 ], [ -49.0542925, -19.9332365 ], [ -49.0542601, -19.9330606 ], [ -49.054219, -19.9330016 ], [ -49.0541434, -19.9329285 ], [ -49.0540331, -19.9325693 ], [ -49.0540342, -19.9324815 ], [ -49.0557093, -19.9322916 ], [ -49.0558915, -19.9322729 ], [ -49.0559349, -19.932294 ] ] ] ] } },
{ "type": "Feature", "properties": { "talhoes": 2606, "area total": 3.59 }, "geometry": { "type": "MultiPolygon", "coordinates": [ [ [ [ -49.0539623, -19.932553 ], [ -49.0541122, -19.9329506 ], [ -49.0541111, -19.9330418 ], [ -49.0541246, -19.9331263 ], [ -49.0541744, -19.933218 ], [ -49.0542497, -19.9333153 ], [ -49.0544525, -19.9338494 ], [ -49.0544964, -19.9339755 ], [ -49.0544541, -19.9341661 ], [ -49.0543208, -19.9341974 ], [ -49.0542389, -19.934193 ], [ -49.0541309, -19.9340937 ], [ -49.0540378, -19.933967 ], [ -49.0539311, -19.9334684 ], [ -49.0538936, -19.9334129 ], [ -49.0535414, -19.9333385 ], [ -49.0533897, -19.9333885 ], [ -49.0532674, -19.9335644 ], [ -49.0531213, -19.9337504 ], [ -49.053022, -19.9338303 ], [ -49.0527873, -19.9338208 ], [ -49.0526658, -19.9339331 ], [ -49.0525613, -19.9339956 ], [ -49.0523742, -19.9339643 ], [ -49.0519552, -19.9336946 ], [ -49.0516495, -19.933545 ], [ -49.0515075, -19.9333988 ], [ -49.0513781, -19.9331134 ], [ -49.0513217, -19.932963 ], [ -49.0513277, -19.9329183 ], [ -49.0514108, -19.9328194 ], [ -49.0516412, -19.9327307 ], [ -49.0525654, -19.9326255 ], [ -49.0532088, -19.9325482 ], [ -49.0538393, -19.9324914 ], [ -49.0539502, -19.9325064 ], [ -49.0539623, -19.932553 ] ] ] ] } }
]
}
