{
"type": "FeatureCollection",
"name": "boundary",
"xy_coordinate_resolution": 1e-07,
"features": [
{ "type": "Feature", "properties": { "FID": 0, "talhoes": 2501, "area total": 7.98 }, "geometry": { "type": "MultiPolygon", "coordinates": [ [ [ [ -49.0361888, -19.8654483 ], [ -49.036356, -19.8654304 ], [ -49.0363792, -19.8654454 ], [ -49.0363839, -19.8654899 ], [ -49.0363494, -19.8655413 ], [ -49.0362832, -19.865622 ], [ -49.0361731, -19.8656627 ], [ -49.0359431, -19.8657096 ], [ -49.0341281, -19.8663311 ], [ -49.0311818, -19.8673323 ], [ -49.0311062, -19.8673266 ], [ -49.0310652, -19.8672669 ], [ -49.0310611, -19.8671805 ], [ -49.0310618, -19.8669116 ], [ -49.0310574, -19.866423 ], [ -49.0310382, -19.8660724 ], [ -49.0309933, -19.8656969 ], [ -49.0309243, -19.8653753 ], [ -49.0307614, -19.8648406 ], [ -49.0306785, -19.8645806 ], [ -49.0309979, -19.8646927 ], [ -49.0321931, -19.8650538 ], [ -49.0326584, -19.8651749 ], [ -49.0333252, -19.8652415 ], [ -49.0349457, -19.8653803 ], [ -49.0361888, -19.8654483 ] ] ] ] } },
{ "type": "Feature", "properties": { "FID": 1, "talhoes": 2509, "area total": 10.61 }, "geometry": { "type": "MultiPolygon", "coordinates": [ [ [ [ -49.0362352, -19.8657103 ], [ -49.0362913, -19.8657035 ], [ -49.0363183, -19.8657371 ], [ -49.0363343, -19.8658101 ], [ -49.0363001, -19.8659442 ], [ -49.0363585, -19.8663914 ], [ -49.0364568, -19.8666664 ], [ -49.0365315, -19.8668486 ], [ -49.0366762, -19.8670661 ], [ -49.0368225, -19.8672527 ], [ -49.0369862, -19.8674063 ], [ -49.037212, -19.8676025 ], [ -49.0374552, -19.8678642 ], [ -49.0377106, -19.8682001 ], [ -49.0378707, -19.8684375 ], [ -49.037965, -19.8686162 ], [ -49.0381083, -19.8687313 ], [ -49.0382453, -19.8688278 ], [ -49.0383836, -19.8689305 ], [ -49.0384902, -19.8690649 ], [ -49.0385386, -19.8691579 ], [ -49.0385275, -19.8692096 ], [ -49.0384944, -19.8692512 ], [ -49.0384186, -19.8692689 ], [ -49.0380048, -19.8691928 ], [ -49.0379111, -19.8691831 ], [ -49.0378347, -19.869239 ], [ -49.0378209, -19.869308 ], [ -49.0377552, -19.869554 ], [ -49.0376885, -19.8698937 ], [ -49.0375881, -19.8704231 ], [ -49.0375197, -19.8704668 ], [ -49.0374436, -19.8705029 ], [ -49.0373995, -19.8704852 ], [ -49.0359677, -19.8698476 ], [ -49.03562, -19.8697032 ], [ -49.0355687, -19.8696384 ], [ -49.0355487, -19.8695691 ], [ -49.0355158, -19.8694849 ], [ -49.0353831, -19.8690393 ], [ -49.0352245, -19.868359 ], [ -49.0350357, -19.8676019 ], [ -49.0348295, -19.8667681 ], [ -49.0347423, -19.8662219 ], [ -49.0351586, -19.8660908 ], [ -49.0357275, -19.8658503 ], [ -49.0362352, -19.8657103 ] ] ] ] } },
{ "type": "Feature", "properties": { "FID": 3, "talhoes": 2502, "area total": 27.42 }, "geometry": { "type": "MultiPolygon", "coordinates": [ [ [ [ -49.0298497, -19.8643272 ], [ -49.030611, -19.8645601 ], [ -49.0306973, -19.8647486 ], [ -49.0308429, -19.8652091 ], [ -49.030974, -19.8657879 ], [ -49.0310112, -19.8661535 ], [ -49.0310249, -19.8673652 ], [ -49.030865, -19.86743 ], [ -49.0303055, -19.8675472 ], [ -49.0286151, -19.8679998 ], [ -49.0265737, -19.8685767 ], [ -49.0252968, -19.8689203 ], [ -49.0244752, -19.8691382 ], [ -49.0241064, -19.8690108 ], [ -49.0232491, -19.8687447 ], [ -49.0235131, -19.8684811 ], [ -49.0237498, -19.8683209 ], [ -49.0237773, -19.8682126 ], [ -49.0237281, -19.8679703 ], [ -49.0236463, -19.8678411 ], [ -49.0235753, -19.8676725 ], [ -49.0234988, -19.8675335 ], [ -49.0235363, -19.8674549 ], [ -49.0236256, -19.8674016 ], [ -49.0238596, -19.8674635 ], [ -49.0238529, -19.8675818 ], [ -49.0238309, -19.8676704 ], [ -49.0238613, -19.8677448 ], [ -49.0239803, -19.8678201 ], [ -49.0241983, -19.8679064 ], [ -49.0243391, -19.8679129 ], [ -49.0246701, -19.8677192 ], [ -49.0248903, -19.8676279 ], [ -49.0250309, -19.8676492 ], [ -49.0252232, -19.8677006 ], [ -49.0255577, -19.8676451 ], [ -49.0257679, -19.8675192 ], [ -49.0259164, -19.8673234 ], [ -49.0261289, -19.86701 ], [ -49.0262613, -19.8668486 ], [ -49.0263973, -19.8668205 ], [ -49.026533, -19.8668121 ], [ -49.0266378, -19.8667738 ], [ -49.0267381, -19.8666713 ], [ -49.0267866, -19.8665484 ], [ -49.0268259, -19.8663268 ], [ -49.0266814, -19.8662018 ], [ -49.026453, -19.8661105 ], [ -49.0262609, -19.8660393 ], [ -49.0261105, -19.8659685 ], [ -49.0258872, -19.8658871 ], [ -49.0256468, -19.8659239 ], [ -49.0255219, -19.8659077 ], [ -49.0254546, -19.8658626 ], [ -49.0254615, -19.8657294 ], [ -49.0254897, -19.865557 ], [ -49.0257964, -19.8643761 ], [ -49.0260436, -19.8633672 ], [ -49.0261762, -19.863191 ], [ -49.0268203, -19.8634004 ], [ -49.0298497, -19.8643272 ] ] ] ] } },
{ "type": "Feature", "properties": { "FID": 4, "talhoes": 2503, "area total": 2.08 }, "geometry": { "type": "MultiPolygon", "coordinates": [ [ [ [ -49.0229231, -19.8668535 ], [ -49.0233243, -19.8668802 ], [ -49.0235113, -19.8669489 ], [ -49.0235624, -19.8670284 ], [ -49.0235795, -19.8671273 ], [ -49.0234694, -19.8671704 ], [ -49.0233365, -19.8671591 ], [ -49.0232298, -19.8671406 ], [ -49.0231299, -19.8672062 ], [ -49.023063, -19.8673485 ], [ -49.0231132, -19.8675045 ], [ -49.0231428, -19.867643 ], [ -49.0231446, -19.867912 ], [ -49.0231846, -19.868058 ], [ -49.0232512, -19.86815 ], [ -49.0233391, -19.8682127 ], [ -49.0234875, -19.868239 ], [ -49.0235005, -19.8682416 ], [ -49.0236036, -19.868339 ], [ -49.0235875, -19.8683758 ], [ -49.0232021, -19.8687441 ], [ -49.0231446, -19.8687534 ], [ -49.0224123, -19.868501 ], [ -49.0224812, -19.8684129 ], [ -49.0225088, -19.8682923 ], [ -49.0224037, -19.8681456 ], [ -49.0222732, -19.8679393 ], [ -49.0221972, -19.8677633 ], [ -49.0221935, -19.8676424 ], [ -49.0222551, -19.8675123 ], [ -49.0221986, -19.8672304 ], [ -49.0221085, -19.8669259 ], [ -49.0221742, -19.8668847 ], [ -49.0223182, -19.8668394 ], [ -49.0229231, -19.8668535 ] ] ] ] } },
{ "type": "Feature", "properties": { "FID": 5, "talhoes": 2505, "area total": 0.04 }, "geometry": { "type": "MultiPolygon", "coordinates": [ [ [ [ -49.0220395, -19.8682797 ], [ -49.0221552, -19.8683081 ], [ -49.0222138, -19.8684223 ], [ -49.0221003, -19.8684247 ], [ -49.0218808, -19.8683581 ], [ -49.0218641, -19.868337 ], [ -49.0218893, -19.8683002 ], [ -49.0219836, -19.868268 ], [ -49.0220395, -19.8682797 ] ] ] ] } },
{ "type": "Feature", "properties": { "FID": 6, "talhoes": 2504, "area total": 1.94 }, "geometry": { "type": "MultiPolygon", "coordinates": [ [ [ [ -49.0229674, -19.8687489 ], [ -49.0236456, -19.8689464 ], [ -49.0240667, -19.8690621 ], [ -49.0243057, -19.8691314 ], [ -49.0243286, -19.8691785 ], [ -49.0238623, -19.8693486 ], [ -49.0232059, -19.8694943 ], [ -49.0226494, -19.869572 ], [ -49.0223081, -19.869546 ], [ -49.0218604, -19.8694768 ], [ -49.0218514, -19.8693608 ], [ -49.0218065, -19.8687706 ], [ -49.0217971, -19.8684793 ], [ -49.0218104, -19.8684622 ], [ -49.0218157, -19.8684524 ], [ -49.0218342, -19.8684353 ], [ -49.0229674, -19.8687489 ] ] ] ] } },
{ "type": "Feature", "properties": { "FID": 8, "talhoes": 2508, "area total": 23.15 }, "geometry": { "type": "MultiPolygon", "coordinates": [ [ [ [ -49.0310573, -19.8674889 ], [ -49.031191, -19.8674311 ], [ -49.0346325, -19.8662429 ], [ -49.0346951, -19.866246 ], [ -49.0347692, -19.8665775 ], [ -49.0349937, -19.8676187 ], [ -49.0351201, -19.868158 ], [ -49.0352864, -19.8688433 ], [ -49.0354062, -19.8692739 ], [ -49.0354432, -19.8694495 ], [ -49.0354566, -19.8698469 ], [ -49.0353791, -19.8702063 ], [ -49.035233, -19.8708437 ], [ -49.0350154, -19.8717864 ], [ -49.0349337, -19.871857 ], [ -49.0338789, -19.8717319 ], [ -49.0321186, -19.871515 ], [ -49.0311186, -19.8713905 ], [ -49.0310124, -19.8713326 ], [ -49.0310026, -19.8712831 ], [ -49.0310018, -19.8709229 ], [ -49.0310147, -19.870094 ], [ -49.03103, -19.8690603 ], [ -49.0310411, -19.8681623 ], [ -49.0310573, -19.8674889 ] ] ] ] } },
{ "type": "Feature", "properties": { "FID": 9, "talhoes": 2507, "area total": 11.8 }, "geometry": { "type": "MultiPolygon", "coordinates": [ [ [ [ -49.0278552, -19.8682924 ], [ -49.0279334, -19.8682932 ], [ -49.0279481, -19.8683724 ], [ -49.027984, -19.8684172 ], [ -49.0280515, -19.8684426 ], [ -49.0282174, -19.8683532 ], [ -49.0283115, -19.8683559 ], [ -49.0284774, -19.8682605 ], [ -49.0285427, -19.8682694 ], [ -49.0286142, -19.8682686 ], [ -49.0287005, -19.8681953 ], [ -49.0288214, -19.8681505 ], [ -49.0288938, -19.8681447 ], [ -49.0290596, -19.8680591 ], [ -49.0291747, -19.8680538 ], [ -49.0294061, -19.8679557 ], [ -49.0294493, -19.8679809 ], [ -49.0295964, -19.8679314 ], [ -49.0296144, -19.8678854 ], [ -49.0295981, -19.8677929 ], [ -49.0298778, -19.8677366 ], [ -49.0299216, -19.8678542 ], [ -49.0299967, -19.8678435 ], [ -49.0300512, -19.8676659 ], [ -49.0302765, -19.8676321 ], [ -49.0302739, -19.8677014 ], [ -49.0303117, -19.8677463 ], [ -49.030399, -19.8677358 ], [ -49.0304898, -19.8675867 ], [ -49.0309268, -19.8674925 ], [ -49.0309648, -19.8675259 ], [ -49.0309928, -19.8686446 ], [ -49.030938, -19.8705375 ], [ -49.0308401, -19.8705628 ], [ -49.0304064, -19.8703865 ], [ -49.0301505, -19.8704925 ], [ -49.0299091, -19.8705624 ], [ -49.0289735, -19.8703706 ], [ -49.0280703, -19.8700967 ], [ -49.0269288, -19.8698069 ], [ -49.0261724, -19.8696036 ], [ -49.0260304, -19.8694886 ], [ -49.0257724, -19.8694758 ], [ -49.0248526, -19.8691942 ], [ -49.0248587, -19.8691252 ], [ -49.0251938, -19.8690204 ], [ -49.0252191, -19.8690823 ], [ -49.0252802, -19.8692064 ], [ -49.0253486, -19.8691553 ], [ -49.0253755, -19.869089 ], [ -49.0253823, -19.8689632 ], [ -49.0256282, -19.8689067 ], [ -49.0256303, -19.8689438 ], [ -49.0256292, -19.8690351 ], [ -49.0256836, -19.8690628 ], [ -49.0257308, -19.8690436 ], [ -49.0257787, -19.8689676 ], [ -49.0258141, -19.8688471 ], [ -49.0259166, -19.8687816 ], [ -49.0260412, -19.8688274 ], [ -49.0260766, -19.8689166 ], [ -49.0261155, -19.8689319 ], [ -49.0261658, -19.8688757 ], [ -49.0261985, -19.868765 ], [ -49.0263221, -19.86868 ], [ -49.0264732, -19.868694 ], [ -49.0264828, -19.8687558 ], [ -49.0265055, -19.8688202 ], [ -49.0265555, -19.8687887 ], [ -49.0266325, -19.8686761 ], [ -49.02678, -19.8685568 ], [ -49.0268867, -19.8685728 ], [ -49.026904, -19.8686569 ], [ -49.0269607, -19.8687093 ], [ -49.0270051, -19.8687049 ], [ -49.0270528, -19.8686412 ], [ -49.0270829, -19.8685256 ], [ -49.0271306, -19.8684694 ], [ -49.0272979, -19.8684367 ], [ -49.0272913, -19.8685501 ], [ -49.0273661, -19.8686102 ], [ -49.0274371, -19.8685665 ], [ -49.0274853, -19.8684659 ], [ -49.0275019, -19.8683896 ], [ -49.0275649, -19.8683533 ], [ -49.0276221, -19.8683663 ], [ -49.0276444, -19.8684627 ], [ -49.027709, -19.8685128 ], [ -49.0277647, -19.8684345 ], [ -49.0278552, -19.8682924 ] ] ] ] } },
{ "type": "Feature", "properties": { "FID": 11, "talhoes": 2510, "area total": 36.36 }, "geometry": { "type": "MultiPolygon", "coordinates": [ [ [ [ -49.0346011, -19.8718607 ], [ -49.0348875, -19.8718984 ], [ -49.0349543, -19.8719781 ], [ -49.0349226, -19.8722245 ], [ -49.0347571, -19.872958 ], [ -49.0346224, -19.873519 ], [ -49.0345338, -19.8739301 ], [ -49.0344325, -19.8741091 ], [ -49.0343428, -19.8744018 ], [ -49.0343211, -19.8746828 ], [ -49.0342602, -19.8749733 ], [ -49.0341376, -19.8758207 ], [ -49.0340498, -19.8759554 ], [ -49.0335557, -19.8762609 ], [ -49.0330504, -19.8766279 ], [ -49.032691, -19.8770137 ], [ -49.0320952, -19.877735 ], [ -49.0319221, -19.8778121 ], [ -49.0314647, -19.8778958 ], [ -49.0312978, -19.8778915 ], [ -49.0310705, -19.8777138 ], [ -49.0307601, -19.8775081 ], [ -49.0304853, -19.8773718 ], [ -49.0300899, -19.877286 ], [ -49.0293925, -19.8771574 ], [ -49.02893, -19.877019 ], [ -49.0285457, -19.8768791 ], [ -49.0281463, -19.8766945 ], [ -49.0277834, -19.8765178 ], [ -49.027201, -19.876161 ], [ -49.0271186, -19.8760712 ], [ -49.0271775, -19.8759534 ], [ -49.0276989, -19.8753374 ], [ -49.0283659, -19.8745503 ], [ -49.0289352, -19.8738559 ], [ -49.0294775, -19.8732401 ], [ -49.0299041, -19.8726946 ], [ -49.0303885, -19.8721177 ], [ -49.0308405, -19.8716292 ], [ -49.030963, -19.8714282 ], [ -49.0310202, -19.8714412 ], [ -49.0314736, -19.8714758 ], [ -49.0329735, -19.8716651 ], [ -49.0346011, -19.8718607 ] ] ] ] } },
{ "type": "Feature", "properties": { "FID": 13, "talhoes": 2506, "area total": 32.38 }, "geometry": { "type": "MultiPolygon", "coordinates": [ [ [ [ -49.0269336, -19.8699035 ], [ -49.0269924, -19.8699138 ], [ -49.0270677, -19.8699635 ], [ -49.0276066, -19.8700883 ], [ -49.0282739, -19.8702672 ], [ -49.0283461, -19.8703505 ], [ -49.0285274, -19.8703492 ], [ -49.029365, -19.8705762 ], [ -49.0295353, -19.8706209 ], [ -49.0296738, -19.870695 ], [ -49.0298372, -19.8707331 ], [ -49.0299622, -19.8707774 ], [ -49.0302052, -19.8708692 ], [ -49.0308504, -19.8708565 ], [ -49.0309558, -19.8708626 ], [ -49.0309436, -19.8712138 ], [ -49.0308953, -19.8714524 ], [ -49.0302763, -19.872168 ], [ -49.0282701, -19.8745473 ], [ -49.0281993, -19.8746811 ], [ -49.027197, -19.8758772 ], [ -49.0270739, -19.8759681 ], [ -49.026928, -19.8759396 ], [ -49.0266586, -19.8757098 ], [ -49.0263575, -19.8754104 ], [ -49.0259324, -19.874952 ], [ -49.0256335, -19.874472 ], [ -49.0252673, -19.8738528 ], [ -49.0248783, -19.8731026 ], [ -49.0243988, -19.8724514 ], [ -49.0239571, -19.8716929 ], [ -49.0234918, -19.8708688 ], [ -49.0228783, -19.8698778 ], [ -49.0230297, -19.8697949 ], [ -49.0231446, -19.8697039 ], [ -49.0231667, -19.8695619 ], [ -49.0232115, -19.8695547 ], [ -49.0233532, -19.8695909 ], [ -49.0233727, -19.8696564 ], [ -49.0233964, -19.8697182 ], [ -49.0234695, -19.869719 ], [ -49.023529, -19.8695082 ], [ -49.0237409, -19.8694606 ], [ -49.0237404, -19.8695029 ], [ -49.0238001, -19.8695997 ], [ -49.0238859, -19.869566 ], [ -49.0239494, -19.869363 ], [ -49.0241608, -19.8693538 ], [ -49.024156, -19.8694152 ], [ -49.024204, -19.8694734 ], [ -49.0242734, -19.8694511 ], [ -49.0243074, -19.8693323 ], [ -49.0243612, -19.8692522 ], [ -49.0245236, -19.8692655 ], [ -49.0245303, -19.8693809 ], [ -49.0246438, -19.8694014 ], [ -49.0247465, -19.8693103 ], [ -49.0248365, -19.8692652 ], [ -49.025079, -19.8693678 ], [ -49.0257592, -19.8695714 ], [ -49.0259049, -19.869623 ], [ -49.0260184, -19.8696473 ], [ -49.0269336, -19.8699035 ] ] ] ] } },
{ "type": "Feature", "properties": { "FID": 14, "talhoes": 2511, "area total": 31.28 }, "geometry": { "type": "MultiPolygon", "coordinates": [ [ [ [ -49.0413792, -19.8777812 ], [ -49.0414664, -19.8777937 ], [ -49.0415552, -19.8778485 ], [ -49.0415823, -19.8779526 ], [ -49.0414213, -19.8783218 ], [ -49.0411052, -19.8790777 ], [ -49.040746, -19.8798657 ], [ -49.0405778, -19.8803233 ], [ -49.040195, -19.8812111 ], [ -49.0401555, -19.8812817 ], [ -49.04008, -19.8813117 ], [ -49.0399299, -19.881285 ], [ -49.0397482, -19.8811908 ], [ -49.0396337, -19.8810857 ], [ -49.0394021, -19.8809178 ], [ -49.0392587, -19.8808451 ], [ -49.0390794, -19.8807201 ], [ -49.0387894, -19.8805035 ], [ -49.0386076, -19.8804208 ], [ -49.0383026, -19.8804367 ], [ -49.0379757, -19.8804158 ], [ -49.0378643, -19.8803799 ], [ -49.0373857, -19.8803016 ], [ -49.0373293, -19.8802606 ], [ -49.0371879, -19.8801937 ], [ -49.0371257, -19.8801276 ], [ -49.0370579, -19.8800269 ], [ -49.0369655, -19.8799356 ], [ -49.0369058, -19.879833 ], [ -49.036838, -19.8797304 ], [ -49.0367658, -19.8796585 ], [ -49.0367441, -19.8796025 ], [ -49.0367047, -19.8794982 ], [ -49.0366364, -19.8794379 ], [ -49.0365178, -19.8793347 ], [ -49.0364321, -19.8791954 ], [ -49.0363639, -19.8791254 ], [ -49.0362613, -19.8790397 ], [ -49.0361602, -19.8790001 ], [ -49.0359852, -19.8788559 ], [ -49.0358355, -19.8788043 ], [ -49.0357315, -19.8788301 ], [ -49.0356393, -19.8788886 ], [ -49.0355534, -19.8789338 ], [ -49.0354741, -19.8789445 ], [ -49.0353465, -19.8789085 ], [ -49.0352761, -19.8788481 ], [ -49.03521, -19.8787705 ], [ -49.0350646, -19.8786978 ], [ -49.0347747, -19.8786446 ], [ -49.0344493, -19.8786621 ], [ -49.0342093, -19.8786826 ], [ -49.034088, -19.8786293 ], [ -49.0339269, -19.878516 ], [ -49.0338194, -19.8784975 ], [ -49.0336202, -19.878505 ], [ -49.0333359, -19.8784845 ], [ -49.0331762, -19.8784193 ], [ -49.0330517, -19.8783007 ], [ -49.0329383, -19.8782725 ], [ -49.0326526, -19.8782002 ], [ -49.0324809, -19.8781233 ], [ -49.0323702, -19.8780317 ], [ -49.0322542, -19.8778843 ], [ -49.0321461, -19.8777486 ], [ -49.0322121, -19.8776724 ], [ -49.032413, -19.8773671 ], [ -49.0326517, -19.8771198 ], [ -49.0328538, -19.8768798 ], [ -49.0329609, -19.8767695 ], [ -49.0330863, -19.8766498 ], [ -49.0332527, -19.8765055 ], [ -49.0335131, -19.8763162 ], [ -49.0337219, -19.8761858 ], [ -49.0340961, -19.8759977 ], [ -49.0342004, -19.8759489 ], [ -49.0344777, -19.8758674 ], [ -49.0346501, -19.8757309 ], [ -49.0349523, -19.8756112 ], [ -49.0352628, -19.8754762 ], [ -49.0356324, -19.875165 ], [ -49.0357299, -19.8751661 ], [ -49.0370255, -19.8762261 ], [ -49.0376777, -19.8767254 ], [ -49.0380169, -19.8768983 ], [ -49.038527, -19.8770577 ], [ -49.0398882, -19.8774111 ], [ -49.0413792, -19.8777812 ] ] ] ] } },
{ "type": "Feature", "properties": { "FID": 15, "talhoes": 2513, "area total": 5.79 }, "geometry": { "type": "MultiPolygon", "coordinates": [ [ [ [ -49.0253243, -19.874334 ], [ -49.0253601, -19.8742733 ], [ -49.0254534, -19.8742878 ], [ -49.0255272, -19.8744059 ], [ -49.0257963, -19.8748241 ], [ -49.0261248, -19.8752045 ], [ -49.0268926, -19.8760084 ], [ -49.0269196, -19.8761279 ], [ -49.0269029, -19.8761623 ], [ -49.0257244, -19.8768144 ], [ -49.0252046, -19.8771085 ], [ -49.0250983, -19.8771611 ], [ -49.0250459, -19.8771259 ], [ -49.0246784, -19.8769373 ], [ -49.0243994, -19.8768227 ], [ -49.0240404, -19.8766111 ], [ -49.0235798, -19.8763907 ], [ -49.0235241, -19.8762978 ], [ -49.0236733, -19.8760573 ], [ -49.0240023, -19.8757457 ], [ -49.0243147, -19.8754608 ], [ -49.0245753, -19.8750946 ], [ -49.0248004, -19.8749664 ], [ -49.0251189, -19.8745162 ], [ -49.0253243, -19.874334 ] ] ] ] } },
{ "type": "Feature", "properties": { "FID": 16, "talhoes": 2514, "area total": 6.31 }, "geometry": { "type": "MultiPolygon", "coordinates": [ [ [ [ -49.0233409, -19.8765231 ], [ -49.0233913, -19.8763949 ], [ -49.0234603, -19.8764014 ], [ -49.0235332, -19.8764234 ], [ -49.0246524, -19.8769452 ], [ -49.0246277, -19.8769757 ], [ -49.0242196, -19.8771096 ], [ -49.0236796, -19.8773958 ], [ -49.0229282, -19.8776873 ], [ -49.0228622, -19.8777635 ], [ -49.0223429, -19.8783498 ], [ -49.0219303, -19.8788527 ], [ -49.0208599, -19.8799557 ], [ -49.0205549, -19.8802984 ], [ -49.0200075, -19.8811765 ], [ -49.0193804, -19.8819308 ], [ -49.0192246, -19.8820444 ], [ -49.0189463, -19.8821951 ], [ -49.018717, -19.8823386 ], [ -49.0184864, -19.8825821 ], [ -49.0182786, -19.8829489 ], [ -49.017909, -19.8832524 ], [ -49.0175795, -19.8836101 ], [ -49.0173752, -19.8836924 ], [ -49.0172952, -19.8835915 ], [ -49.0173867, -19.8834234 ], [ -49.0176596, -19.8830497 ], [ -49.0180291, -19.8827462 ], [ -49.0184247, -19.8823123 ], [ -49.0188633, -19.8816867 ], [ -49.0194362, -19.8807165 ], [ -49.0199405, -19.8800301 ], [ -49.0210678, -19.87892 ], [ -49.0225831, -19.8773298 ], [ -49.0233409, -19.8765231 ] ] ] ] } },
{ "type": "Feature", "properties": { "FID": 17, "talhoes": 2512, "area total": 33.52 }, "geometry": { "type": "MultiPolygon", "coordinates": [ [ [ [ -49.0314467, -19.8791446 ], [ -49.0294332, -19.88027 ], [ -49.0269614, -19.8816497 ], [ -49.0242773, -19.8831117 ], [ -49.0239509, -19.883208 ], [ -49.0238309, -19.8830529 ], [ -49.0240081, -19.8812172 ], [ -49.0242003, -19.8801428 ], [ -49.0243517, -19.8797292 ], [ -49.0245895, -19.8792302 ], [ -49.0248665, -19.8788564 ], [ -49.0252041, -19.8785046 ], [ -49.0253603, -19.8783583 ], [ -49.0254624, -19.8781595 ], [ -49.0255095, -19.8779659 ], [ -49.0255037, -19.8777716 ], [ -49.0254609, -19.8776174 ], [ -49.025231, -19.877313 ], [ -49.0251873, -19.8772356 ], [ -49.0252172, -19.8771149 ], [ -49.0257899, -19.8768194 ], [ -49.0267946, -19.8762519 ], [ -49.0270157, -19.8761198 ], [ -49.0270543, -19.8761183 ], [ -49.0278226, -19.8765959 ], [ -49.0283277, -19.8768322 ], [ -49.0290153, -19.8770935 ], [ -49.0294691, -19.8772043 ], [ -49.0303265, -19.8773752 ], [ -49.0304847, -19.8774039 ], [ -49.0307409, -19.877549 ], [ -49.0310211, -19.8777328 ], [ -49.0312083, -19.8778809 ], [ -49.0313087, -19.8779724 ], [ -49.0313726, -19.8780692 ], [ -49.031406, -19.8781599 ], [ -49.0314358, -19.8782103 ], [ -49.0314978, -19.8782917 ], [ -49.031552, -19.8783442 ], [ -49.0316662, -19.8784819 ], [ -49.0317423, -19.8785712 ], [ -49.0317984, -19.8786333 ], [ -49.0318384, -19.8786895 ], [ -49.0318456, -19.8787607 ], [ -49.0318428, -19.8788222 ], [ -49.0318179, -19.8788661 ], [ -49.0317866, -19.878935 ], [ -49.0316634, -19.8790317 ], [ -49.0314467, -19.8791446 ] ] ] ] } },
{ "type": "Feature", "properties": { "FID": 18, "talhoes": 2515, "area total": 22.24 }, "geometry": { "type": "MultiPolygon", "coordinates": [ [ [ [ -49.025202, -19.877528 ], [ -49.0252889, -19.8774819 ], [ -49.0253223, -19.877489 ], [ -49.0253736, -19.8775337 ], [ -49.0254802, -19.8777877 ], [ -49.0254876, -19.8779291 ], [ -49.0254321, -19.8781409 ], [ -49.0253696, -19.8782661 ], [ -49.0251657, -19.8784878 ], [ -49.0248506, -19.8788217 ], [ -49.0246335, -19.8791249 ], [ -49.0244573, -19.8794046 ], [ -49.0243047, -19.8797547 ], [ -49.0241985, -19.8800438 ], [ -49.0241156, -19.880337 ], [ -49.0240642, -19.8807084 ], [ -49.0240117, -19.8810903 ], [ -49.0239819, -19.8812822 ], [ -49.0239029, -19.8820041 ], [ -49.0238008, -19.8830218 ], [ -49.0237843, -19.8833754 ], [ -49.0236571, -19.8834662 ], [ -49.0231743, -19.8837261 ], [ -49.0217706, -19.8845064 ], [ -49.0207105, -19.8851136 ], [ -49.019618, -19.885705 ], [ -49.0191802, -19.8859424 ], [ -49.0190213, -19.8859714 ], [ -49.0188715, -19.8859274 ], [ -49.0187597, -19.8857647 ], [ -49.0187446, -19.8856723 ], [ -49.0186517, -19.8853021 ], [ -49.0186214, -19.8851249 ], [ -49.0186683, -19.8849409 ], [ -49.018737, -19.8846457 ], [ -49.0188013, -19.8843849 ], [ -49.0188722, -19.8842396 ], [ -49.0189429, -19.8841097 ], [ -49.0189528, -19.8839676 ], [ -49.0189873, -19.8838065 ], [ -49.0191074, -19.8836271 ], [ -49.0193416, -19.8834183 ], [ -49.0195072, -19.8831779 ], [ -49.0195982, -19.8830482 ], [ -49.0198351, -19.8829547 ], [ -49.0199676, -19.8827562 ], [ -49.0200743, -19.882669 ], [ -49.0202018, -19.8825512 ], [ -49.0204268, -19.8824346 ], [ -49.0205258, -19.8823165 ], [ -49.0206502, -19.8821179 ], [ -49.020843, -19.8819701 ], [ -49.0211658, -19.8815047 ], [ -49.0214586, -19.8811658 ], [ -49.0217429, -19.8808498 ], [ -49.0219686, -19.8806716 ], [ -49.0221953, -19.8804204 ], [ -49.02246, -19.8800504 ], [ -49.0228138, -19.8797006 ], [ -49.0230677, -19.8795497 ], [ -49.0235293, -19.8793587 ], [ -49.0236074, -19.8792827 ], [ -49.0238902, -19.8790898 ], [ -49.0241125, -19.8788615 ], [ -49.0241853, -19.8785625 ], [ -49.0242616, -19.8783096 ], [ -49.0243734, -19.8781416 ], [ -49.0245049, -19.8780278 ], [ -49.0248034, -19.8778811 ], [ -49.0250368, -19.8777376 ], [ -49.025202, -19.877528 ] ] ] ] } }
]
}
