{
"type": "FeatureCollection",
"name": "boundary",
"xy_coordinate_resolution": 1e-07,
"features": [
{ "type": "Feature", "properties": { "id": null, "talhoes": 2607, "area total": 15.75 }, "geometry": { "type": "MultiPolygon", "coordinates": [ [ [ [ -49.1081074, -19.6469791 ], [ -49.1081459, -19.6469528 ], [ -49.1081742, -19.6469358 ], [ -49.1082292, -19.6469112 ], [ -49.1082956, -19.6469041 ], [ -49.1083683, -19.6469284 ], [ -49.1085368, -19.6469836 ], [ -49.1086768, -19.647062 ], [ -49.1088263, -19.6471736 ], [ -49.109003, -19.647521 ], [ -49.1093278, -19.6480993 ], [ -49.1097604, -19.6488138 ], [ -49.1097503, -19.6488247 ], [ -49.1092499, -19.6489466 ], [ -49.108189, -19.6492119 ], [ -49.1069537, -19.6495084 ], [ -49.1055394, -19.6498552 ], [ -49.1043754, -19.6501523 ], [ -49.1036047, -19.6503527 ], [ -49.1035219, -19.6503455 ], [ -49.1034792, -19.6503058 ], [ -49.1034079, -19.6501652 ], [ -49.1033382, -19.6497514 ], [ -49.1032296, -19.6491173 ], [ -49.103092, -19.648409 ], [ -49.1031513, -19.6483719 ], [ -49.1036426, -19.648187 ], [ -49.1040616, -19.6480108 ], [ -49.1045307, -19.6478029 ], [ -49.1050687, -19.6475981 ], [ -49.1056599, -19.6473695 ], [ -49.1059782, -19.6472307 ], [ -49.1063839, -19.6471298 ], [ -49.1067101, -19.6471646 ], [ -49.1070149, -19.6471906 ], [ -49.1072841, -19.6472037 ], [ -49.107361, -19.6472893 ], [ -49.1074246, -19.6473127 ], [ -49.1075416, -19.6472975 ], [ -49.1076126, -19.6472597 ], [ -49.1076428, -19.6472247 ], [ -49.1078932, -19.6470821 ], [ -49.1081074, -19.6469791 ] ] ] ] } },
{ "type": "Feature", "properties": { "id": null, "talhoes": 2606, "area total": 8.34 }, "geometry": { "type": "MultiPolygon", "coordinates": [ [ [ [ -49.1029743, -19.6484093 ], [ -49.1030292, -19.6483958 ], [ -49.1030737, -19.6485533 ], [ -49.1031887, -19.6490681 ], [ -49.1034336, -19.6503807 ], [ -49.1034052, -19.650393 ], [ -49.1032024, -19.6504395 ], [ -49.1029044, -19.6505479 ], [ -49.102644, -19.6506991 ], [ -49.1024534, -19.650829 ], [ -49.1020887, -19.6511063 ], [ -49.1018827, -19.6512879 ], [ -49.1016624, -19.6515463 ], [ -49.101491, -19.6517424 ], [ -49.1013085, -19.6520405 ], [ -49.1011574, -19.6523358 ], [ -49.1010723, -19.6525265 ], [ -49.1010384, -19.6527304 ], [ -49.101001, -19.6529514 ], [ -49.1010042, -19.6531023 ], [ -49.1010163, -19.6533364 ], [ -49.1010358, -19.653511 ], [ -49.1009765, -19.6534805 ], [ -49.1006779, -19.653215 ], [ -49.1005388, -19.6530549 ], [ -49.1004006, -19.6528226 ], [ -49.1003767, -19.6527469 ], [ -49.1004101, -19.6525855 ], [ -49.1004528, -19.6524744 ], [ -49.1005315, -19.6524061 ], [ -49.1006124, -19.6522955 ], [ -49.1006699, -19.652205 ], [ -49.100758, -19.6520394 ], [ -49.1007445, -19.6519215 ], [ -49.1007643, -19.651785 ], [ -49.100777, -19.6516941 ], [ -49.1008405, -19.651511 ], [ -49.1008974, -19.6513246 ], [ -49.1008782, -19.6512647 ], [ -49.1008331, -19.6511543 ], [ -49.100729, -19.6509804 ], [ -49.1006987, -19.6508843 ], [ -49.1006093, -19.6504451 ], [ -49.1005369, -19.6501208 ], [ -49.1005628, -19.6500315 ], [ -49.1005744, -19.649895 ], [ -49.1005634, -19.6497033 ], [ -49.1005678, -19.6494661 ], [ -49.1006543, -19.6493021 ], [ -49.1008652, -19.6491331 ], [ -49.101378, -19.6489516 ], [ -49.1022552, -19.648653 ], [ -49.1029743, -19.6484093 ] ] ] ] } },
{ "type": "Feature", "properties": { "id": null, "talhoes": 2604, "area total": 18.17 }, "geometry": { "type": "MultiPolygon", "coordinates": [ [ [ [ -49.1102621, -19.6497222 ], [ -49.1104554, -19.6500588 ], [ -49.1113536, -19.65165 ], [ -49.1112947, -19.651731 ], [ -49.1111618, -19.6517501 ], [ -49.1101508, -19.6520018 ], [ -49.1088605, -19.652318 ], [ -49.1078811, -19.6525669 ], [ -49.106634, -19.6528695 ], [ -49.1055133, -19.6531483 ], [ -49.1045438, -19.6533956 ], [ -49.1044493, -19.6533978 ], [ -49.1043587, -19.6533434 ], [ -49.1042052, -19.653147 ], [ -49.1039598, -19.6527235 ], [ -49.1038304, -19.6524488 ], [ -49.1037272, -19.6519153 ], [ -49.1035981, -19.6513359 ], [ -49.1040886, -19.651217 ], [ -49.1051512, -19.6509439 ], [ -49.1057779, -19.6508012 ], [ -49.1060922, -19.6507276 ], [ -49.1060985, -19.6507497 ], [ -49.1072059, -19.6504786 ], [ -49.108275, -19.6502181 ], [ -49.1095072, -19.6499106 ], [ -49.1102621, -19.6497222 ] ] ] ] } },
{ "type": "Feature", "properties": { "id": null, "talhoes": 2605, "area total": 2.27 }, "geometry": { "type": "MultiPolygon", "coordinates": [ [ [ [ -49.1034269, -19.6513733 ], [ -49.1035732, -19.6513372 ], [ -49.1037035, -19.6519637 ], [ -49.1038133, -19.6524911 ], [ -49.1037731, -19.6525299 ], [ -49.1036999, -19.6525495 ], [ -49.1036485, -19.6525506 ], [ -49.1035953, -19.6525594 ], [ -49.10354, -19.6526091 ], [ -49.1035076, -19.6526904 ], [ -49.1034845, -19.6528221 ], [ -49.1034302, -19.6529268 ], [ -49.1033136, -19.6529743 ], [ -49.1032106, -19.6529889 ], [ -49.1030002, -19.6529741 ], [ -49.1027706, -19.6530455 ], [ -49.1022982, -19.6531725 ], [ -49.1021445, -19.6532698 ], [ -49.1020725, -19.6533319 ], [ -49.1020479, -19.653308 ], [ -49.1020257, -19.653223 ], [ -49.1020225, -19.6530753 ], [ -49.1020359, -19.6529231 ], [ -49.1020693, -19.6527601 ], [ -49.1021393, -19.6525833 ], [ -49.1022847, -19.6523493 ], [ -49.1024766, -19.6521031 ], [ -49.1027115, -19.6518668 ], [ -49.1029508, -19.6516793 ], [ -49.1031898, -19.6515106 ], [ -49.1034269, -19.6513733 ] ] ] ] } },
{ "type": "Feature", "properties": { "id": null, "talhoes": 2602, "area total": 11.91 }, "geometry": { "type": "MultiPolygon", "coordinates": [ [ [ [ -49.1114553, -19.6518914 ], [ -49.1115113, -19.6519234 ], [ -49.1116221, -19.6520879 ], [ -49.1129832, -19.6545023 ], [ -49.1127904, -19.6545411 ], [ -49.1111342, -19.6549572 ], [ -49.1099636, -19.6552433 ], [ -49.1098874, -19.6552394 ], [ -49.1096695, -19.6551554 ], [ -49.109561, -19.6550789 ], [ -49.1095054, -19.6550155 ], [ -49.1094666, -19.6549302 ], [ -49.109441, -19.6548483 ], [ -49.1093821, -19.6547817 ], [ -49.1093162, -19.6547465 ], [ -49.1092139, -19.6547045 ], [ -49.1090195, -19.6545957 ], [ -49.1089377, -19.6545006 ], [ -49.108892, -19.6544436 ], [ -49.1088866, -19.6543367 ], [ -49.1089374, -19.6542493 ], [ -49.1090145, -19.6541778 ], [ -49.109075, -19.6541031 ], [ -49.1090927, -19.6540153 ], [ -49.108981, -19.6539262 ], [ -49.1087164, -19.6538605 ], [ -49.1084974, -19.6538739 ], [ -49.108454, -19.6539018 ], [ -49.1084103, -19.6539547 ], [ -49.1083763, -19.6540235 ], [ -49.1083256, -19.6541077 ], [ -49.1082684, -19.6541763 ], [ -49.1082418, -19.6541823 ], [ -49.1081921, -19.6541817 ], [ -49.1081661, -19.6541312 ], [ -49.1081709, -19.6540087 ], [ -49.1081538, -19.6532043 ], [ -49.1081192, -19.6527579 ], [ -49.1094294, -19.6524481 ], [ -49.1112751, -19.65199 ], [ -49.1112424, -19.6519457 ], [ -49.1114553, -19.6518914 ] ] ] ] } },
{ "type": "Feature", "properties": { "id": null, "talhoes": 2601, "area total": 5.45 }, "geometry": { "type": "MultiPolygon", "coordinates": [ [ [ [ -49.1128433, -19.6545542 ], [ -49.1129881, -19.6545117 ], [ -49.1130175, -19.6545482 ], [ -49.1130838, -19.6546949 ], [ -49.1132498, -19.654959 ], [ -49.1135526, -19.6552983 ], [ -49.1138406, -19.6554773 ], [ -49.1139869, -19.655584 ], [ -49.1139331, -19.655651 ], [ -49.1138176, -19.655744 ], [ -49.1135803, -19.6559065 ], [ -49.1131031, -19.6561591 ], [ -49.1127672, -19.6563849 ], [ -49.1125778, -19.6565635 ], [ -49.1122234, -19.656665 ], [ -49.1118818, -19.6566709 ], [ -49.1115012, -19.6566103 ], [ -49.1113692, -19.656554 ], [ -49.1112902, -19.6564997 ], [ -49.1112298, -19.656419 ], [ -49.1112022, -19.6563731 ], [ -49.1111965, -19.656293 ], [ -49.1111959, -19.656205 ], [ -49.1112187, -19.6561 ], [ -49.1111827, -19.6560556 ], [ -49.1110823, -19.6559949 ], [ -49.1110214, -19.6559566 ], [ -49.1109604, -19.6559245 ], [ -49.1108832, -19.6558624 ], [ -49.1108424, -19.6558102 ], [ -49.1108181, -19.6557597 ], [ -49.1107225, -19.65571 ], [ -49.1106883, -19.6556578 ], [ -49.1105533, -19.6555731 ], [ -49.1104047, -19.6555244 ], [ -49.1103038, -19.6555014 ], [ -49.1102463, -19.6554584 ], [ -49.1101283, -19.655344 ], [ -49.110013, -19.6552753 ], [ -49.1100266, -19.6552487 ], [ -49.1109877, -19.6550106 ], [ -49.1119986, -19.6547652 ], [ -49.1128433, -19.6545542 ] ] ] ] } },
{ "type": "Feature", "properties": { "id": null, "talhoes": 2603, "area total": 6.07 }, "geometry": { "type": "MultiPolygon", "coordinates": [ [ [ [ -49.1078947, -19.6528152 ], [ -49.1080875, -19.652778 ], [ -49.1081202, -19.6532385 ], [ -49.1081229, -19.6538637 ], [ -49.1081219, -19.6542313 ], [ -49.1081199, -19.6543962 ], [ -49.1080856, -19.6544932 ], [ -49.1080418, -19.6545587 ], [ -49.1079929, -19.6546273 ], [ -49.1078611, -19.654695 ], [ -49.1076362, -19.6547869 ], [ -49.1075278, -19.6548392 ], [ -49.10735, -19.6548766 ], [ -49.1072835, -19.65489 ], [ -49.1071972, -19.6548954 ], [ -49.1070777, -19.6549067 ], [ -49.1069864, -19.654912 ], [ -49.1069, -19.6549299 ], [ -49.1067755, -19.6549428 ], [ -49.1063982, -19.655022 ], [ -49.1061055, -19.6551038 ], [ -49.1055761, -19.6550039 ], [ -49.1055168, -19.6549672 ], [ -49.1054847, -19.654736 ], [ -49.1054747, -19.6544547 ], [ -49.1054508, -19.6543728 ], [ -49.1053987, -19.6542921 ], [ -49.1051935, -19.6541203 ], [ -49.1050011, -19.6539863 ], [ -49.1047299, -19.6537856 ], [ -49.1046007, -19.653635 ], [ -49.106014, -19.6532933 ], [ -49.1068487, -19.6530838 ], [ -49.1078947, -19.6528152 ] ] ] ] } }
]
}
