{
"type": "FeatureCollection",
"name": "boundary",
"xy_coordinate_resolution": 1e-07,
"features": [
{ "type": "Feature", "properties": { "talhoes": 2601 }, "geometry": { "type": "MultiPolygon", "coordinates": [ [ [ [ -49.1339767, -20.0018861 ], [ -49.1340848, -20.0019106 ], [ -49.1341494, -20.0019552 ], [ -49.1342472, -20.0020705 ], [ -49.1344936, -20.0024509 ], [ -49.1353669, -20.0038013 ], [ -49.1365202, -20.0055706 ], [ -49.1378262, -20.0075348 ], [ -49.1382208, -20.0079723 ], [ -49.1381894, -20.0080071 ], [ -49.1381113, -20.008059 ], [ -49.137837, -20.0082026 ], [ -49.1354731, -20.0092496 ], [ -49.1354209, -20.0092109 ], [ -49.1352353, -20.0089161 ], [ -49.134224, -20.00745 ], [ -49.1331892, -20.0058723 ], [ -49.1321636, -20.0043094 ], [ -49.1313116, -20.0029943 ], [ -49.1339767, -20.0018861 ] ] ] ] } },
{ "type": "Feature", "properties": { "talhoes": 2602 }, "geometry": { "type": "MultiPolygon", "coordinates": [ [ [ [ -49.13109, -20.0030885 ], [ -49.1312177, -20.0030441 ], [ -49.1312964, -20.0030594 ], [ -49.131614, -20.0035293 ], [ -49.1327116, -20.005169 ], [ -49.1338534, -20.0069415 ], [ -49.135276, -20.0090656 ], [ -49.1353157, -20.0091574 ], [ -49.1352942, -20.009251 ], [ -49.1350098, -20.0094236 ], [ -49.1346389, -20.009588 ], [ -49.1329355, -20.010342 ], [ -49.1328253, -20.0104058 ], [ -49.1326676, -20.0104018 ], [ -49.1314848, -20.0086553 ], [ -49.1305025, -20.0071635 ], [ -49.1296161, -20.0057376 ], [ -49.1291191, -20.0049483 ], [ -49.1285641, -20.0041224 ], [ -49.1285623, -20.0040622 ], [ -49.13109, -20.0030885 ] ] ] ] } },
{ "type": "Feature", "properties": { "talhoes": 2603 }, "geometry": { "type": "MultiPolygon", "coordinates": [ [ [ [ -49.128444, -20.0041644 ], [ -49.1285051, -20.004165 ], [ -49.1286256, -20.004301 ], [ -49.1305046, -20.0071972 ], [ -49.1321844, -20.0097353 ], [ -49.1326438, -20.0104809 ], [ -49.1318152, -20.0108377 ], [ -49.1275798, -20.0092538 ], [ -49.127545, -20.0087532 ], [ -49.128444, -20.0041644 ] ] ] ] } }
]
}
