{
"type": "FeatureCollection",
"name": "boundary",
"xy_coordinate_resolution": 1e-07,
"features": [
{ "type": "Feature", "properties": { "talhoes": 2601, "area total": 6.01 }, "geometry": { "type": "MultiPolygon", "coordinates": [ [ [ [ -49.066547, -19.9344514 ], [ -49.0665733, -19.9343811 ], [ -49.0665969, -19.9343865 ], [ -49.0666151, -19.9343884 ], [ -49.0667034, -19.9344651 ], [ -49.0672671, -19.9349584 ], [ -49.0678287, -19.9354757 ], [ -49.0685851, -19.936145 ], [ -49.0685194, -19.9363078 ], [ -49.0676226, -19.9368557 ], [ -49.0665315, -19.9375221 ], [ -49.0654352, -19.9381556 ], [ -49.0653865, -19.9381207 ], [ -49.0654186, -19.9380281 ], [ -49.065616, -19.9373606 ], [ -49.0658484, -19.9366677 ], [ -49.0660872, -19.9358854 ], [ -49.0663086, -19.9351993 ], [ -49.066547, -19.9344514 ] ] ] ] } },
{ "type": "Feature", "properties": { "talhoes": 2602, "area total": 18.89 }, "geometry": { "type": "MultiPolygon", "coordinates": [ [ [ [ -49.0642761, -19.9323042 ], [ -49.0657779, -19.9336357 ], [ -49.0665374, -19.9343428 ], [ -49.0664822, -19.9345419 ], [ -49.0663279, -19.9350273 ], [ -49.0661466, -19.9355719 ], [ -49.0659609, -19.9361672 ], [ -49.0658275, -19.9365883 ], [ -49.0657164, -19.9368926 ], [ -49.0656043, -19.9372744 ], [ -49.0654765, -19.9376793 ], [ -49.065379, -19.9380655 ], [ -49.0653199, -19.938138 ], [ -49.0652704, -19.9381685 ], [ -49.0652131, -19.938161 ], [ -49.0650746, -19.938026 ], [ -49.0645012, -19.9374302 ], [ -49.0640374, -19.9369492 ], [ -49.0636412, -19.9365283 ], [ -49.0631894, -19.9360346 ], [ -49.0627249, -19.9355398 ], [ -49.062279, -19.9350917 ], [ -49.0617579, -19.9345377 ], [ -49.0613311, -19.934089 ], [ -49.0610981, -19.9338644 ], [ -49.0610883, -19.9338427 ], [ -49.0622381, -19.9332184 ], [ -49.0630044, -19.9327706 ], [ -49.0635842, -19.9324654 ], [ -49.0638938, -19.9323026 ], [ -49.0640117, -19.9322643 ], [ -49.0640818, -19.9322634 ], [ -49.0642045, -19.9322759 ], [ -49.0642761, -19.9323042 ] ] ] ] } },
{ "type": "Feature", "properties": { "talhoes": 2603, "area total": 17.69 }, "geometry": { "type": "MultiPolygon", "coordinates": [ [ [ [ -49.061096, -19.9338824 ], [ -49.0617, -19.9345104 ], [ -49.0623474, -19.9351914 ], [ -49.0626871, -19.9355471 ], [ -49.0629279, -19.9357967 ], [ -49.0631746, -19.9360585 ], [ -49.0634055, -19.936305 ], [ -49.0636488, -19.9365736 ], [ -49.0639071, -19.936851 ], [ -49.0641098, -19.9370636 ], [ -49.0643528, -19.9373176 ], [ -49.0645753, -19.9375498 ], [ -49.06483, -19.9378177 ], [ -49.0651068, -19.9381073 ], [ -49.0651949, -19.9382021 ], [ -49.0652119, -19.9382629 ], [ -49.065148, -19.9383474 ], [ -49.0646118, -19.9386265 ], [ -49.0642082, -19.9388786 ], [ -49.0636956, -19.9391983 ], [ -49.0632565, -19.9394491 ], [ -49.0631569, -19.9394851 ], [ -49.0630349, -19.9394898 ], [ -49.0625958, -19.9390762 ], [ -49.0620971, -19.9385457 ], [ -49.0616415, -19.9380682 ], [ -49.0612434, -19.9376559 ], [ -49.0607669, -19.9371696 ], [ -49.0602979, -19.9366739 ], [ -49.0599106, -19.936266 ], [ -49.0595324, -19.9358634 ], [ -49.0590993, -19.9354111 ], [ -49.058835, -19.9351397 ], [ -49.0588329, -19.9350855 ], [ -49.0588699, -19.9350359 ], [ -49.0597573, -19.9345843 ], [ -49.0606232, -19.9341075 ], [ -49.0610265, -19.9338786 ], [ -49.061063, -19.9338679 ], [ -49.061096, -19.9338824 ] ] ] ] } },
{ "type": "Feature", "properties": { "talhoes": 2604, "area total": 2.24 }, "geometry": { "type": "MultiPolygon", "coordinates": [ [ [ [ -49.0587634, -19.9351114 ], [ -49.0589785, -19.9353143 ], [ -49.059309, -19.935675 ], [ -49.0594221, -19.9358037 ], [ -49.0594481, -19.9358315 ], [ -49.0594394, -19.9358761 ], [ -49.0593376, -19.9359404 ], [ -49.0588549, -19.9361202 ], [ -49.058212, -19.9363662 ], [ -49.0577275, -19.9365451 ], [ -49.057286, -19.9367055 ], [ -49.0571958, -19.9367063 ], [ -49.05707, -19.936655 ], [ -49.0569811, -19.9365533 ], [ -49.0568893, -19.9363234 ], [ -49.0568766, -19.9362389 ], [ -49.0569056, -19.9361789 ], [ -49.058308, -19.9353637 ], [ -49.0587634, -19.9351114 ] ] ] ] } }
]
}
