{
"type": "FeatureCollection",
"name": "boundary",
"xy_coordinate_resolution": 1e-07,
"features": [
{ "type": "Feature", "properties": { "FID": 0, "talhoes": 1, "area total": 18.99 }, "geometry": { "type": "MultiPolygon", "coordinates": [ [ [ [ -48.6630563, -20.9245021 ], [ -48.6631793, -20.924578 ], [ -48.6635003, -20.9248327 ], [ -48.6635225, -20.9248605 ], [ -48.6635624, -20.9249056 ], [ -48.6635796, -20.924961 ], [ -48.6635966, -20.9250291 ], [ -48.6636001, -20.9250927 ], [ -48.6635605, -20.9251706 ], [ -48.6629701, -20.9258411 ], [ -48.6618732, -20.9271535 ], [ -48.6618278, -20.9271698 ], [ -48.6617307, -20.9271749 ], [ -48.6616301, -20.927112 ], [ -48.6613153, -20.9268914 ], [ -48.6604453, -20.9262306 ], [ -48.6596329, -20.9256469 ], [ -48.6587489, -20.9250178 ], [ -48.6573717, -20.924034 ], [ -48.6573824, -20.9239239 ], [ -48.6575812, -20.9236255 ], [ -48.6580944, -20.922988 ], [ -48.6584763, -20.9225182 ], [ -48.6589328, -20.9218989 ], [ -48.6591048, -20.9217189 ], [ -48.6592001, -20.9216863 ], [ -48.6592855, -20.9217108 ], [ -48.6595532, -20.9219159 ], [ -48.6604115, -20.9225935 ], [ -48.6612109, -20.9231495 ], [ -48.6619493, -20.9237067 ], [ -48.6630563, -20.9245021 ] ] ] ] } }
]
}
