{
"type": "FeatureCollection",
"name": "boundary",
"xy_coordinate_resolution": 1e-07,
"features": [
{ "type": "Feature", "properties": { }, "geometry": { "type": "Polygon", "coordinates": [ [ [ -49.1340442, -20.0019298 ], [ -49.1341736, -20.0020002 ], [ -49.1382285, -20.0079605 ], [ -49.1377659, -20.0081651 ], [ -49.1337362, -20.0099637 ], [ -49.1318145, -20.0107678 ], [ -49.1316985, -20.0107436 ], [ -49.1303579, -20.0102534 ], [ -49.1276608, -20.0092308 ], [ -49.1275656, -20.0090854 ], [ -49.1278007, -20.0077515 ], [ -49.1281925, -20.0055556 ], [ -49.1283779, -20.0042512 ], [ -49.1285837, -20.0040977 ], [ -49.1310209, -20.0031341 ], [ -49.1340442, -20.0019298 ] ] ] } }
]
}
